{
  "type": "FeatureCollection",
  "features": [
    {
      "type": "Feature",
      "properties": {
        "norad_id": 31466,
        "name": "FENGYUN 1C DEB",
        "group": "fengyun-1c-debris",
        "lat": 53.664255554899974,
        "lon": 102.66404234390274,
        "alt_km": 1024.7789751464943,
        "timestamp": "2025-12-06T07:31:40.519456+00:00",
        "meta_object_name": "FENGYUN 1C DEB",
        "meta_object_id": "1999-025BVE",
        "meta_epoch": "2025-12-04T14:18:33.161760",
        "meta_mean_motion": 14.18497899,
        "meta_eccentricity": 0.0299578,
        "meta_inclination": 99.086,
        "meta_ra_of_asc_node": 268.3368,
        "meta_arg_of_pericenter": 332.0598,
        "meta_mean_anomaly": 26.4764,
        "meta_ephemeris_type": 0,
        "meta_classification_type": "U",
        "meta_norad_cat_id": 31466,
        "meta_element_set_no": 999,
        "meta_rev_at_epoch": 96213,
        "meta_bstar": 0.00050408,
        "meta_mean_motion_dot": 1.571e-05,
        "meta_mean_motion_ddot": 0,
        "tle_line1": "1 31466U 99025BVE 25338.59621715  .00001571  00000+0  50408-3 0  9995",
        "tle_line2": "2 31466  99.0860 268.3368 0299578 332.0598  26.4764 14.18497899962130"
      },
      "geometry": {
        "type": "Point",
        "coordinates": [
          102.66404234390274,
          53.664255554899974
        ]
      }
    },
    {
      "type": "Feature",
      "properties": {
        "norad_id": 31468,
        "name": "FENGYUN 1C DEB",
        "group": "fengyun-1c-debris",
        "lat": -77.69855350476375,
        "lon": 17.83129430546383,
        "alt_km": 748.2500102268887,
        "timestamp": "2025-12-06T07:31:40.519466+00:00",
        "meta_object_name": "FENGYUN 1C DEB",
        "meta_object_id": "1999-025BVG",
        "meta_epoch": "2025-12-04T06:06:18.457056",
        "meta_mean_motion": 14.46550399,
        "meta_eccentricity": 0.0166029,
        "meta_inclination": 98.1667,
        "meta_ra_of_asc_node": 334.6566,
        "meta_arg_of_pericenter": 192.6316,
        "meta_mean_anomaly": 167.0693,
        "meta_ephemeris_type": 0,
        "meta_classification_type": "U",
        "meta_norad_cat_id": 31468,
        "meta_element_set_no": 999,
        "meta_rev_at_epoch": 67249,
        "meta_bstar": 0.00082274,
        "meta_mean_motion_dot": 3.472e-05,
        "meta_mean_motion_ddot": 0,
        "tle_line1": "1 31468U 99025BVG 25338.25438029  .00003472  00000+0  82274-3 0  9992",
        "tle_line2": "2 31468  98.1667 334.6566 0166029 192.6316 167.0693 14.46550399672492"
      },
      "geometry": {
        "type": "Point",
        "coordinates": [
          17.83129430546383,
          -77.69855350476375
        ]
      }
    },
    {
      "type": "Feature",
      "properties": {
        "norad_id": 31473,
        "name": "FENGYUN 1C DEB",
        "group": "fengyun-1c-debris",
        "lat": 80.0109898098925,
        "lon": -107.88534344329373,
        "alt_km": 762.4447665604366,
        "timestamp": "2025-12-06T07:31:40.519476+00:00",
        "meta_object_name": "FENGYUN 1C DEB",
        "meta_object_id": "1999-025BVM",
        "meta_epoch": "2025-12-05T07:51:02.153664",
        "meta_mean_motion": 14.29705041,
        "meta_eccentricity": 0.00653191,
        "meta_inclination": 98.5458,
        "meta_ra_of_asc_node": 12.5281,
        "meta_arg_of_pericenter": 36.8958,
        "meta_mean_anomaly": 22.7611,
        "meta_ephemeris_type": 0,
        "meta_classification_type": "U",
        "meta_norad_cat_id": 31473,
        "meta_element_set_no": 999,
        "meta_rev_at_epoch": 69415,
        "meta_bstar": 0.0026811839,
        "meta_mean_motion_dot": 7.001e-05,
        "meta_mean_motion_ddot": 0,
        "tle_line1": "1 31473U 99025BVM 25339.32710826  .00007001  00000+0  26812-2 0  9992",
        "tle_line2": "2 31473  98.5458  12.5281 0065319  36.8958  22.7611 14.29705041694158"
      },
      "geometry": {
        "type": "Point",
        "coordinates": [
          -107.88534344329373,
          80.0109898098925
        ]
      }
    },
    {
      "type": "Feature",
      "properties": {
        "norad_id": 31474,
        "name": "FENGYUN 1C DEB",
        "group": "fengyun-1c-debris",
        "lat": 75.74341905460719,
        "lon": -114.5971954814157,
        "alt_km": 877.9979469913333,
        "timestamp": "2025-12-06T07:31:40.519487+00:00",
        "meta_object_name": "FENGYUN 1C DEB",
        "meta_object_id": "1999-025BVN",
        "meta_epoch": "2025-12-04T22:41:56.798592",
        "meta_mean_motion": 14.10536522,
        "meta_eccentricity": 0.0071454,
        "meta_inclination": 99.1447,
        "meta_ra_of_asc_node": 24.6709,
        "meta_arg_of_pericenter": 227.5531,
        "meta_mean_anomaly": 131.9583,
        "meta_ephemeris_type": 0,
        "meta_classification_type": "U",
        "meta_norad_cat_id": 31474,
        "meta_element_set_no": 999,
        "meta_rev_at_epoch": 94860,
        "meta_bstar": 0.002564,
        "meta_mean_motion_dot": 4.634e-05,
        "meta_mean_motion_ddot": 0,
        "tle_line1": "1 31474U 99025BVN 25338.94579628  .00004634  00000+0  25640-2 0  9990",
        "tle_line2": "2 31474  99.1447  24.6709 0071454 227.5531 131.9583 14.10536522948605"
      },
      "geometry": {
        "type": "Point",
        "coordinates": [
          -114.5971954814157,
          75.74341905460719
        ]
      }
    },
    {
      "type": "Feature",
      "properties": {
        "norad_id": 31475,
        "name": "FENGYUN 1C DEB",
        "group": "fengyun-1c-debris",
        "lat": 39.6785296481738,
        "lon": 56.24643653390996,
        "alt_km": 614.5693771368797,
        "timestamp": "2025-12-06T07:31:40.519497+00:00",
        "meta_object_name": "FENGYUN 1C DEB",
        "meta_object_id": "1999-025BVP",
        "meta_epoch": "2025-12-03T10:25:51.057408",
        "meta_mean_motion": 14.38132444,
        "meta_eccentricity": 0.02114587,
        "meta_inclination": 98.9405,
        "meta_ra_of_asc_node": 225.7449,
        "meta_arg_of_pericenter": 134.4708,
        "meta_mean_anomaly": 227.3988,
        "meta_ephemeris_type": 0,
        "meta_classification_type": "U",
        "meta_norad_cat_id": 31475,
        "meta_element_set_no": 999,
        "meta_rev_at_epoch": 95945,
        "meta_bstar": 0.00080491968,
        "meta_mean_motion_dot": 3.112e-05,
        "meta_mean_motion_ddot": 0,
        "tle_line1": "1 31475U 99025BVP 25337.43461872  .00003112  00000+0  80492-3 0  9992",
        "tle_line2": "2 31475  98.9405 225.7449 0211458 134.4708 227.3988 14.38132444959453"
      },
      "geometry": {
        "type": "Point",
        "coordinates": [
          56.24643653390996,
          39.6785296481738
        ]
      }
    },
    {
      "type": "Feature",
      "properties": {
        "norad_id": 31476,
        "name": "FENGYUN 1C DEB",
        "group": "fengyun-1c-debris",
        "lat": -51.85816884214269,
        "lon": 65.26576334719402,
        "alt_km": 842.7958258656672,
        "timestamp": "2025-12-06T07:31:40.519507+00:00",
        "meta_object_name": "FENGYUN 1C DEB",
        "meta_object_id": "1999-025BVQ",
        "meta_epoch": "2025-12-04T16:56:16.000800",
        "meta_mean_motion": 14.22014419,
        "meta_eccentricity": 0.00530749,
        "meta_inclination": 98.8998,
        "meta_ra_of_asc_node": 52.1339,
        "meta_arg_of_pericenter": 194.5226,
        "meta_mean_anomaly": 165.4429,
        "meta_ephemeris_type": 0,
        "meta_classification_type": "U",
        "meta_norad_cat_id": 31476,
        "meta_element_set_no": 999,
        "meta_rev_at_epoch": 95585,
        "meta_bstar": 0.0034907257,
        "meta_mean_motion_dot": 7.789e-05,
        "meta_mean_motion_ddot": 0,
        "tle_line1": "1 31476U 99025BVQ 25338.70574075  .00007789  00000+0  34907-2 0  9997",
        "tle_line2": "2 31476  98.8998  52.1339 0053074 194.5226 165.4429 14.22014419955856"
      },
      "geometry": {
        "type": "Point",
        "coordinates": [
          65.26576334719402,
          -51.85816884214269
        ]
      }
    },
    {
      "type": "Feature",
      "properties": {
        "norad_id": 31477,
        "name": "FENGYUN 1C DEB",
        "group": "fengyun-1c-debris",
        "lat": 43.836961593053054,
        "lon": 158.80967839970933,
        "alt_km": 877.2305227766274,
        "timestamp": "2025-12-06T07:31:40.519517+00:00",
        "meta_object_name": "FENGYUN 1C DEB",
        "meta_object_id": "1999-025BVR",
        "meta_epoch": "2025-12-04T22:22:24.950208",
        "meta_mean_motion": 14.02914324,
        "meta_eccentricity": 0.011066,
        "meta_inclination": 98.8847,
        "meta_ra_of_asc_node": 328.8232,
        "meta_arg_of_pericenter": 50.5784,
        "meta_mean_anomaly": 310.5115,
        "meta_ephemeris_type": 0,
        "meta_classification_type": "U",
        "meta_norad_cat_id": 31477,
        "meta_element_set_no": 999,
        "meta_rev_at_epoch": 95294,
        "meta_bstar": 0.00028787,
        "meta_mean_motion_dot": 4.28e-06,
        "meta_mean_motion_ddot": 0,
        "tle_line1": "1 31477U 99025BVR 25338.93223322  .00000428  00000+0  28787-3 0  9992",
        "tle_line2": "2 31477  98.8847 328.8232 0110660  50.5784 310.5115 14.02914324952944"
      },
      "geometry": {
        "type": "Point",
        "coordinates": [
          158.80967839970933,
          43.836961593053054
        ]
      }
    }
  ]
}